#aP2017  9 29  0  0  0.00000000      96 ORBIT IGS14 HLM  IGS
## 1968 432000.00000000   900.00000000 58025 0.0000000000000
+   32     1  2  3  4  5  6  7  8  9 10 11 12 13 14 15 16 17
+         18 19 20 21 22 23 24 25 26 27 28 29 30 31 32  0  0
+          0  0  0  0  0  0  0  0  0  0  0  0  0  0  0  0  0
+          0  0  0  0  0  0  0  0  0  0  0  0  0  0  0  0  0
+          0  0  0  0  0  0  0  0  0  0  0  0  0  0  0  0  0
++         2  2  2  0  2  2  2  2  2  2  2  2  2  2  2  2  2
++         2  2  2  2  2  3  2  2  2  2  2  2  2  2  2  0  0
++         0  0  0  0  0  0  0  0  0  0  0  0  0  0  0  0  0
++         0  0  0  0  0  0  0  0  0  0  0  0  0  0  0  0  0
++         0  0  0  0  0  0  0  0  0  0  0  0  0  0  0  0  0
%c c  cc ccc ccc cccc cccc cccc cccc ccccc ccccc ccccc ccccc
%c cc cc ccc ccc cccc cccc cccc cccc ccccc ccccc ccccc ccccc
%f  0.0000000  0.000000000  0.00000000000  0.000000000000000
%f  0.0000000  0.000000000  0.00000000000  0.000000000000000
%i    0    0    0    0      0      0      0      0         0
%i    0    0    0    0      0      0      0      0         0
/* FINAL ORBIT COMBINATION FROM WEIGHTED AVERAGE OF:        
/* cod emr esa gfz grg jpl mit ngs sio                      
/* REFERENCED TO GPS CLOCK AND TO WEIGHTED MEAN POLE:       
/* PCV:IGS14_1967 OL/AL:FES2004  NONE     Y  ORB:CMB CLK:CMB
*  2017  9 29 17  0  0.00000000
P  1  18841.698025  13664.566437 -13179.897879     -2.746347
P  2   3391.574061 -15390.849109  21892.075809    318.520093
P  3  13710.584024  20410.866881  10083.596419    -62.122852
P  4 -12160.211118  22616.733112  -5730.654264 999999.999999
P  5  -2005.831180 -25017.217297   8265.933943    -27.722632
P  6  17803.608911  -8565.818470  17774.116351    401.099869
P  7  26085.804382   6138.010573   -428.183009    299.779591
P  8    603.242670  18654.483825 -18806.413370    -75.226385
P  9  18277.387479    147.965393  19249.123794    450.426626
P 10 -13230.431090   8097.425582 -21522.016449     76.929676
P 11  14188.926893  12684.991285 -19064.389945   -718.475338
P 12 -10266.650972 -23671.356902   6552.648283    371.030230
P 13   7434.451630 -20359.469113 -15481.561055    -92.101960
P 14 -18702.404060  18697.918526   1389.976937    -84.963391
P 15  -5167.004403 -17158.006302 -19674.493466   -356.237738
P 16   -301.327866  24808.750915   8768.995901     37.000762
P 17  21203.817259 -13709.802922  -7613.623824   -153.917180
P 18 -16991.932150  -3711.713201 -19531.335848    630.512789
P 19  19982.530439 -17687.388320   -200.706142   -483.780836
P 20 -13717.984169 -22176.402509  -5267.559189    488.162570
P 21 -26212.133124  -2623.665405  -2891.790718   -475.342057
P 22  10831.511186  24126.513506   2478.613103   -138.232581
P 23  12173.798086   9931.201996  21678.648359   -217.745207
P 24 -16676.177822 -14332.050998 -15165.998610    -40.281816
P 25 -15711.600634 -14104.368021  16092.862619   -464.389758
P 26  -6250.303181  19375.604002  17011.018939   -411.984877
P 27 -10133.665394  21934.623975 -10832.744191    331.178354
P 28  13922.273102  -3397.355500 -21733.079893    649.863834
P 29 -15551.520896  -4513.842585  21035.958881    557.147322
P 30  24114.317072  -1470.379958 -11190.214626    137.720747
P 31 -15933.528995   9582.407463  19182.959312    172.094744
P 32 -20145.503392  16336.999054  -5556.008792   -506.819056
*  2017  9 29 17 15  0.00000000
P  1  17240.858450  13509.575955 -15348.583597     -2.747493
P  2   5750.264904 -15024.445593  21619.048441    318.511588
P  3  13820.448350  21436.867157   7474.328362    -62.118644
P  4 -12684.640709  22836.563656  -2908.308234 999999.999999
P  5  -1359.771058 -24069.969925  10810.608320    -27.721317
P  6  19667.486312  -8063.870161  15949.910071    401.102402
P  7  25951.998942   6335.341528   2398.477523    299.775061
P  8   -839.337735  20145.857217 -17184.731770    -75.227476
P  9  16893.482009   1956.217426  20378.830777    450.431938
P 10 -14074.854183   5763.384527 -21748.026823     76.937942
P 11  12115.216740  13296.561276 -20091.790629   -718.477125
P 12 -10277.305831 -24294.522371   3733.126851    371.028968
P 13   8749.933370 -21333.394166 -13317.991204    -92.102526
P 14 -18864.450268  18484.450752  -1477.872967    -84.964109
P 15  -3742.831270 -18799.270682 -18411.696287   -356.237939
P 16   -777.857960  23714.827611  11379.359073     37.000798
P 17  20608.626268 -12796.555538 -10265.366998   -153.915563
P 18 -17708.972011  -5891.046913 -18375.149005    630.513677
P 19  19999.256570 -17445.874353  -3069.720739   -483.778852
P 20 -13591.306926 -22711.163630  -2528.292242    488.163534
P 21 -26418.647547  -2967.746863    -87.045679   -475.338980
P 22  10535.015704  24354.462473   -300.968064   -138.243938
P 23  10584.985106  11765.243227  21555.046855   -217.745542
P 24 -14846.577305 -14235.650495 -17030.060757    -40.282899
P 25 -16138.705171 -15793.230051  14003.752057   -464.395478
P 26  -7093.168895  17508.095202  18636.153857   -411.974736
P 27 -10996.402341  22626.756700  -8221.872780    331.182592
P 28  14557.930062   -866.295951 -21568.224740    649.866718
P 29 -13881.830279  -6299.946677  21734.159771    557.143553
P 30  25154.920447   -947.578800  -8690.399578    137.718584
P 31 -17940.161954   9019.817939  17651.559615    172.092812
P 32 -19824.021263  15566.575299  -8260.388607   -506.823685
*  2017  9 29 17 30  0.00000000
P  1  15406.559950  13410.501799 -17258.574906     -2.748627
P  2   8078.758178 -14782.890842  20989.808676    318.503375
P  3  13868.115652  22176.089681   4736.677430    -62.114476
P  4 -13025.686501  22805.495452    -34.339093 999999.999999
P  5   -556.623015 -22900.194467  13166.282892    -27.720155
P  6  21335.231110  -7690.016160  13851.680816    401.104977
P  7  25518.745355   6491.187440   5185.061732    299.770649
P  8  -2080.613742  21550.543597 -15265.076251    -75.229369
P  9  15538.488226   3919.125646  21157.180925    450.437235
P 10 -15040.660182   3473.571138 -21598.914593     76.946215
P 11   9982.115954  14022.961258 -20788.865272   -718.479254
P 12 -10218.405637 -24610.549275    849.921155    371.027682
P 13   9832.990515 -22191.932815 -10926.965340    -92.103045
P 14 -18822.075165  18035.939307  -4319.945867    -84.965014
P 15  -2481.843022 -20374.639084 -16832.733431   -356.238426
P 16  -1403.892749  22375.256236  13788.375662     37.000348
P 17  19875.069516 -11625.006583 -12735.975076   -153.913375
P 18 -18458.875164  -7893.516212 -16889.214429    630.514256
P 19  19810.348294 -16972.664081  -5886.843455   -483.777112
P 20 -13342.315519 -22978.154198    254.343034    488.164380
P 21 -26327.029646  -3266.099323   2719.270557   -475.336301
P 22  10114.129378  24313.536851  -3075.333894   -138.255567
P 23   9107.640052  13652.778208  21068.008928   -217.745733
P 24 -12821.296937 -14212.502359 -18605.746052    -40.283334
P 25 -16562.401281 -17222.325647  11673.905018   -464.401198
P 26  -8096.444432  15534.763625  19939.722579   -411.964596
P 27 -11636.963329  23120.992894  -5468.004541    331.186750
P 28  15317.477844   1585.191552 -21009.458323    649.869814
P 29 -12275.933933  -8219.749928  22057.855876    557.139258
P 30  25935.350261   -532.333532  -6042.191778    137.716537
P 31 -19785.694906   8596.822548  15822.313704    172.090659
P 32 -19362.782708  14542.346602 -10822.021557   -506.828333
*  2017  9 29 17 45  0.00000000
P  1  13371.031473  13397.037547 -18877.523736     -2.749807
P  2  10332.062835 -14661.288474  20013.429422    318.495209
P  3  13815.418054  22629.782644   1917.686521    -62.110279
P  4 -13212.673033  22500.793358   2840.223797 999999.999999
P  5    419.818794 -21545.060740  15291.783472    -27.719096
P  6  22769.986563  -7420.859206  11515.447618    401.107417
P  7  24789.178628   6642.952284   7885.138833    299.766172
P  8  -3118.721642  22823.523260 -13080.666137    -75.230124
P  9  14248.177735   6005.088780  21570.698525    450.442555
P 10 -16106.875327   1272.319307 -21077.648335     76.954445
P 11   7830.862472  14861.027888 -21145.001354   -718.481136
P 12 -10051.271260 -24627.994681  -2047.764540    371.026369
P 13  10687.492868 -22893.404827  -8349.127613    -92.103416
P 14 -18606.990140  17332.485285  -7086.486437    -84.965958
P 15  -1388.617720 -21840.710725 -14963.616855   -356.238498
P 16  -2200.762548  20829.291116  15953.567295     37.000510
P 17  19045.818851 -10194.776689 -14981.154388   -153.911688
P 18 -19207.918193  -9690.370102 -15101.706668    630.514856
P 19  19450.826011 -16249.867039  -8604.723313   -483.775362
P 20 -12939.533641 -22991.383089   3032.593027    488.165476
P 21 -25938.990289  -3554.473806   5479.420039   -475.333559
P 22   9539.641635  24021.365680  -5796.460081   -138.266769
P 23   7764.093586  15553.031410  20224.349151   -217.745807
P 24 -10636.885327 -14285.952071 -19866.025492    -40.283720
P 25 -16942.831853 -18377.021321   9143.876394   -464.406945
P 26  -9258.051798  13502.351585  20899.477395   -411.954494
P 27 -12074.996794  23382.419471  -2618.914951    331.190933
P 28  16177.025453   3908.162383 -20067.536149    649.872300
P 29 -10769.884642 -10237.650036  22001.508178    557.135624
P 30  26433.692079   -194.322767  -3290.861016    137.714493
P 31 -21430.376355   8295.240233  13726.601248    172.088286
P 32 -18801.296878  13261.844998 -13196.635189   -506.832967
EOF
